start=new Date('2023-02-01T00:00:00.000Z').valueOf();
sats=[{"ECCENTRICITY":"0.00011370","INCLINATION":"53.2176","COUNTRY_CODE":"US","ARG_OF_PERICENTER":"91.4508","RA_OF_ASC_NODE":"94.5322","CENTER_NAME":"EARTH","LAUNCH_DATE":"2022-05-06","OBJECT_ID":"2022-049AL","OBJECT_TYPE":"PAYLOAD","TIME_SYSTEM":"UTC","MEAN_ANOMALY":"268.6614","NORAD_CAT_ID":"52485","REF_FRAME":"TEME","SEMIMAJOR_AXIS":"6917.869","APOAPSIS":"540.521","DECAY_DATE":null,"SITE":"AFETR","FILE":"3766747","EPOCH":"2023-01-31T20:56:13.670016","MEAN_ELEMENT_THEORY":"SGP4","GP_ID":"224127977","TLE_LINE1":"1 52485U 22049AL  23031.87238044 -.00000037  00000-0  15749-4 0  9997","PERIAPSIS":"538.948","REV_AT_EPOCH":"4137","TLE_LINE2":"2 52485  53.2176  94.5322 0001137  91.4508 268.6614 15.08843592 41377","CLASSIFICATION_TYPE":"U","RCS_SIZE":"LARGE","ELEMENT_SET_NO":"999","MEAN_MOTION_DOT":"-0.00000037","EPHEMERIS_TYPE":"0","PERIOD":"95.437","OBJECT_NAME":"STARLINK-3913","BSTAR":"0.00001574900000","MEAN_MOTION_DDOT":"0.0000000000000","MEAN_MOTION":"15.08843592"},{"FILE":"3766747","EPOCH":"2023-01-31T15:31:38.861184","MEAN_ELEMENT_THEORY":"SGP4","GP_ID":"224127728","TLE_LINE1":"1 52486U 22049AM  23031.64697756  .00001916  00000-0  13842-3 0  9999","PERIAPSIS":"538.866","REV_AT_EPOCH":"4120","TLE_LINE2":"2 52486  53.2157 105.5569 0001242  93.9311 266.1824 15.08846634 41207","CLASSIFICATION_TYPE":"U","RCS_SIZE":"LARGE","ELEMENT_SET_NO":"999","MEAN_MOTION_DOT":"0.00001916","EPHEMERIS_TYPE":"0","PERIOD":"95.437","OBJECT_NAME":"STARLINK-3918","BSTAR":"0.00013842000000","MEAN_MOTION_DDOT":"0.0000000000000","MEAN_MOTION":"15.08846634","ECCENTRICITY":"0.00012420","INCLINATION":"53.2157","COUNTRY_CODE":"US","ARG_OF_PERICENTER":"93.9311","RA_OF_ASC_NODE":"105.5569","CENTER_NAME":"EARTH","LAUNCH_DATE":"2022-05-06","OBJECT_ID":"2022-049AM","OBJECT_TYPE":"PAYLOAD","TIME_SYSTEM":"UTC","MEAN_ANOMALY":"266.1824","REF_FRAME":"TEME","NORAD_CAT_ID":"52486","SEMIMAJOR_AXIS":"6917.860","APOAPSIS":"540.584","DECAY_DATE":null,"SITE":"AFETR"},{"ELEMENT_SET_NO":"999","RCS_SIZE":"LARGE","CLASSIFICATION_TYPE":"U","TLE_LINE2":"2 52487  53.2176  94.5262 0001367  97.7571 262.3576 15.08848228 42613","REV_AT_EPOCH":"4261","PERIAPSIS":"538.775","TLE_LINE1":"1 52487U 22049AN  23031.87333800  .00007076  00000-0  46211-3 0  9991","GP_ID":"224126476","MEAN_ELEMENT_THEORY":"SGP4","EPOCH":"2023-01-31T20:57:36.403200","FILE":"3766747","MEAN_MOTION":"15.08848228","MEAN_MOTION_DDOT":"0.0000000000000","BSTAR":"0.00046211000000","OBJECT_NAME":"STARLINK-3902","PERIOD":"95.437","EPHEMERIS_TYPE":"0","MEAN_MOTION_DOT":"0.00007076","OBJECT_TYPE":"PAYLOAD","OBJECT_ID":"2022-049AN","LAUNCH_DATE":"2022-05-06","CENTER_NAME":"EARTH","RA_OF_ASC_NODE":"94.5262","ARG_OF_PERICENTER":"97.7571","COUNTRY_CODE":"US","INCLINATION":"53.2176","ECCENTRICITY":"0.00013670","SITE":"AFETR","DECAY_DATE":null,"APOAPSIS":"540.666","SEMIMAJOR_AXIS":"6917.855","NORAD_CAT_ID":"52487","REF_FRAME":"TEME","MEAN_ANOMALY":"262.3576","TIME_SYSTEM":"UTC"},{"SITE":"AFETR","DECAY_DATE":null,"APOAPSIS":"540.512","SEMIMAJOR_AXIS":"6917.883","REF_FRAME":"TEME","NORAD_CAT_ID":"52488","MEAN_ANOMALY":"277.3309","TIME_SYSTEM":"UTC","OBJECT_TYPE":"PAYLOAD","LAUNCH_DATE":"2022-05-06","OBJECT_ID":"2022-049AP","CENTER_NAME":"EARTH","RA_OF_ASC_NODE":"104.3865","COUNTRY_CODE":"US","ARG_OF_PERICENTER":"82.7809","ECCENTRICITY":"0.00011040","INCLINATION":"53.2160","MEAN_MOTION_DDOT":"0.0000000000000","MEAN_MOTION":"15.08839196","OBJECT_NAME":"STARLINK-3892","BSTAR":"0.00012489000000","EPHEMERIS_TYPE":"0","PERIOD":"95.438","MEAN_MOTION_DOT":"0.00001700","RCS_SIZE":"LARGE","ELEMENT_SET_NO":"999","CLASSIFICATION_TYPE":"U","REV_AT_EPOCH":"4124","TLE_LINE2":"2 52488  53.2160 104.3865 0001104  82.7809 277.3309 15.08839196 41245","TLE_LINE1":"1 52488U 22049AP  23031.90826138  .00001700  00000-0  12489-3 0  9995","PERIAPSIS":"538.984","GP_ID":"224127226","MEAN_ELEMENT_THEORY":"SGP4","EPOCH":"2023-01-31T21:47:53.783232","FILE":"3766747"},{"PERIAPSIS":"539.076","TLE_LINE1":"1 52489U 22049AQ  23031.91562162  .00001187  00000-0  92665-4 0  9995","TLE_LINE2":"2 52489  53.2145 104.3434 0000960  92.2746 267.8356 15.08841579 41240","REV_AT_EPOCH":"4124","CLASSIFICATION_TYPE":"U","ELEMENT_SET_NO":"999","RCS_SIZE":"LARGE","FILE":"3766747","EPOCH":"2023-01-31T21:58:29.707968","MEAN_ELEMENT_THEORY":"SGP4","GP_ID":"224127478","MEAN_MOTION":"15.08841579","MEAN_MOTION_DDOT":"0.0000000000000","MEAN_MOTION_DOT":"0.00001187","PERIOD":"95.437","EPHEMERIS_TYPE":"0","BSTAR":"0.00009266500000","OBJECT_NAME":"STARLINK-3923","CENTER_NAME":"EARTH","OBJECT_ID":"2022-049AQ","LAUNCH_DATE":"2022-05-06","OBJECT_TYPE":"PAYLOAD","INCLINATION":"53.2145","ECCENTRICITY":"0.00009600","ARG_OF_PERICENTER":"92.2746","COUNTRY_CODE":"US","RA_OF_ASC_NODE":"104.3434","APOAPSIS":"540.405","DECAY_DATE":null,"SITE":"AFETR","TIME_SYSTEM":"UTC","MEAN_ANOMALY":"267.8356","REF_FRAME":"TEME","NORAD_CAT_ID":"52489","SEMIMAJOR_AXIS":"6917.876"},{"APOAPSIS":"540.576","DECAY_DATE":null,"SITE":"AFETR","TIME_SYSTEM":"UTC","MEAN_ANOMALY":"280.2234","REF_FRAME":"TEME","NORAD_CAT_ID":"52490","SEMIMAJOR_AXIS":"6917.903","CENTER_NAME":"EARTH","OBJECT_ID":"2022-049AR","LAUNCH_DATE":"2022-05-06","OBJECT_TYPE":"PAYLOAD","INCLINATION":"53.2156","ECCENTRICITY":"0.00011680","ARG_OF_PERICENTER":"79.8890","COUNTRY_CODE":"US","RA_OF_ASC_NODE":"96.3948","MEAN_MOTION":"15.08832622","MEAN_MOTION_DDOT":"0.0000000000000","MEAN_MOTION_DOT":"0.00000056","PERIOD":"95.438","EPHEMERIS_TYPE":"0","BSTAR":"0.00002161600000","OBJECT_NAME":"STARLINK-3914","PERIAPSIS":"538.960","TLE_LINE1":"1 52490U 22049AR  23031.46022242  .00000056  00000-0  21616-4 0  9999","TLE_LINE2":"2 52490  53.2156  96.3948 0001168  79.8890 280.2234 15.08832622 41317","REV_AT_EPOCH":"4131","CLASSIFICATION_TYPE":"U","ELEMENT_SET_NO":"999","RCS_SIZE":"LARGE","FILE":"3766475","EPOCH":"2023-01-31T11:02:43.217088","MEAN_ELEMENT_THEORY":"SGP4","GP_ID":"224097365"},{"DECAY_DATE":null,"SITE":"AFETR","APOAPSIS":"540.724","NORAD_CAT_ID":"52491","REF_FRAME":"TEME","SEMIMAJOR_AXIS":"6917.862","TIME_SYSTEM":"UTC","MEAN_ANOMALY":"281.2569","OBJECT_TYPE":"PAYLOAD","CENTER_NAME":"EARTH","LAUNCH_DATE":"2022-05-06","OBJECT_ID":"2022-049AS","COUNTRY_CODE":"US","ARG_OF_PERICENTER":"78.8585","RA_OF_ASC_NODE":"94.5768","ECCENTRICITY":"0.00014410","INCLINATION":"53.2153","MEAN_MOTION_DDOT":"0.0000000000000","MEAN_MOTION":"15.08845996","OBJECT_NAME":"STARLINK-3908","BSTAR":"0.00018689000000","MEAN_MOTION_DOT":"0.00002688","EPHEMERIS_TYPE":"0","PERIOD":"95.437","CLASSIFICATION_TYPE":"U","RCS_SIZE":"LARGE","ELEMENT_SET_NO":"999","TLE_LINE1":"1 52491U 22049AS  23031.86501960  .00002688  00000-0  18689-3 0  9991","PERIAPSIS":"538.730","REV_AT_EPOCH":"4137","TLE_LINE2":"2 52491  53.2153  94.5768 0001441  78.8585 281.2569 15.08845996 41375","MEAN_ELEMENT_THEORY":"SGP4","GP_ID":"224126976","FILE":"3766747","EPOCH":"2023-01-31T20:45:37.693440"},{"MEAN_MOTION_DDOT":"0.0000000000000","MEAN_MOTION":"15.08841416","MEAN_MOTION_DOT":"0.00002080","EPHEMERIS_TYPE":"0","PERIOD":"95.437","OBJECT_NAME":"STARLINK-3916","BSTAR":"0.00014870000000","TLE_LINE1":"1 52492U 22049AT  23031.45285669  .00002080  00000-0  14870-3 0  9996","PERIAPSIS":"538.860","REV_AT_EPOCH":"4131","TLE_LINE2":"2 52492  53.2141  96.4192 0001273  96.1394 263.9743 15.08841416 41317","CLASSIFICATION_TYPE":"U","RCS_SIZE":"LARGE","ELEMENT_SET_NO":"999","FILE":"3766475","EPOCH":"2023-01-31T10:52:06.818016","MEAN_ELEMENT_THEORY":"SGP4","GP_ID":"224096372","APOAPSIS":"540.622","DECAY_DATE":null,"SITE":"AFETR","TIME_SYSTEM":"UTC","MEAN_ANOMALY":"263.9743","REF_FRAME":"TEME","NORAD_CAT_ID":"52492","SEMIMAJOR_AXIS":"6917.876","CENTER_NAME":"EARTH","LAUNCH_DATE":"2022-05-06","OBJECT_ID":"2022-049AT","OBJECT_TYPE":"PAYLOAD","ECCENTRICITY":"0.00012730","INCLINATION":"53.2141","COUNTRY_CODE":"US","ARG_OF_PERICENTER":"96.1394","RA_OF_ASC_NODE":"96.4192"},{"DECAY_DATE":null,"SITE":"AFETR","APOAPSIS":"540.732","NORAD_CAT_ID":"52493","REF_FRAME":"TEME","SEMIMAJOR_AXIS":"6917.873","TIME_SYSTEM":"UTC","MEAN_ANOMALY":"274.6127","OBJECT_TYPE":"PAYLOAD","CENTER_NAME":"EARTH","LAUNCH_DATE":"2022-05-06","OBJECT_ID":"2022-049AU","COUNTRY_CODE":"US","ARG_OF_PERICENTER":"85.5029","RA_OF_ASC_NODE":"94.5953","ECCENTRICITY":"0.00014370","INCLINATION":"53.2154","MEAN_MOTION_DDOT":"0.0000000000000","MEAN_MOTION":"15.08842362","OBJECT_NAME":"STARLINK-3883","BSTAR":"0.00012362000000","MEAN_MOTION_DOT":"0.00001680","EPHEMERIS_TYPE":"0","PERIOD":"95.437","CLASSIFICATION_TYPE":"U","RCS_SIZE":"LARGE","ELEMENT_SET_NO":"999","TLE_LINE1":"1 52493U 22049AU  23031.86134175  .00001680  00000-0  12362-3 0  9996","PERIAPSIS":"538.744","REV_AT_EPOCH":"4137","TLE_LINE2":"2 52493  53.2154  94.5953 0001437  85.5029 274.6127 15.08842362 41377","MEAN_ELEMENT_THEORY":"SGP4","GP_ID":"224127978","FILE":"3766747","EPOCH":"2023-01-31T20:40:19.927200"},{"OBJECT_TYPE":"PAYLOAD","LAUNCH_DATE":"2022-05-06","OBJECT_ID":"2022-049AV","CENTER_NAME":"EARTH","RA_OF_ASC_NODE":"94.3919","COUNTRY_CODE":"US","ARG_OF_PERICENTER":"94.7000","ECCENTRICITY":"0.00010560","INCLINATION":"53.2158","SITE":"AFETR","DECAY_DATE":null,"APOAPSIS":"540.463","SEMIMAJOR_AXIS":"6917.868","REF_FRAME":"TEME","NORAD_CAT_ID":"52494","MEAN_ANOMALY":"265.4113","TIME_SYSTEM":"UTC","RCS_SIZE":"LARGE","ELEMENT_SET_NO":"999","CLASSIFICATION_TYPE":"U","REV_AT_EPOCH":"4138","TLE_LINE2":"2 52494  53.2158  94.3919 0001056  94.7000 265.4113 15.08844204 41381","TLE_LINE1":"1 52494U 22049AV  23031.90549716  .00000857  00000-0  71911-4 0  9994","PERIAPSIS":"539.002","GP_ID":"224127729","MEAN_ELEMENT_THEORY":"SGP4","EPOCH":"2023-01-31T21:43:54.954624","FILE":"3766747","MEAN_MOTION_DDOT":"0.0000000000000","MEAN_MOTION":"15.08844204","OBJECT_NAME":"STARLINK-3857","BSTAR":"0.00007191100000","EPHEMERIS_TYPE":"0","PERIOD":"95.437","MEAN_MOTION_DOT":"0.00000857"}];
